NORAD_CAT_ID,OBJECT_NAME,OBJECT_TYPE,EPOCH,MEAN_MOTION,ECCENTRICITY,INCLINATION,RA_OF_ASC_NODE,ARG_OF_PERICENTER,MEAN_ANOMALY,BSTAR,MEAN_MOTION_DOT,MEAN_MOTION_DDOT,TLE_LINE0,TLE_LINE1,TLE_LINE2,SEMIMAJOR_AXIS,PERIOD,APOGEE,PERIGEE,DECAYED
51464.0,STARLINK-3189,PAYLOAD,2024-04-04 00:44:14,15.08847549,0.0001356,53.2179,202.4558,97.2036,262.911,0.00013227,1.818e-05,0.0,0 STARLINK-3189,1 51464U 22010J   24095.03072538  .00001818  00000-0  13227-3 0  9999,2 51464  53.2179 202.4558 0001356  97.2036 262.9110 15.08847549120899,6917.857,95.437,540.66,538.784,0.0
51464.0,STARLINK-3189,PAYLOAD,2024-04-04 13:27:20,15.0884015,0.0001399,53.2184,200.0773,99.4517,260.6633,-1.0722e-05,-4.59e-06,0.0,0 STARLINK-3189,1 51464U 22010J   24095.56065336 -.00000459  00000-0 -10722-4 0  9995,2 51464  53.2184 200.0773 0001399  99.4517 260.6633 15.08840150120978,6917.88,95.438,540.713,538.777,0.0
51464.0,STARLINK-3189,PAYLOAD,2024-04-05 13:18:07,15.08836357,0.0001429,53.2179,195.6175,91.5691,268.5465,5.0952e-05,5.23e-06,0.0,0 STARLINK-3189,1 51464U 22010J   24096.55425455  .00000523  00000-0  50952-4 0  9996,2 51464  53.2179 195.6175 0001429  91.5691 268.5465 15.08836357121174,6917.892,95.438,540.745,538.768,0.0
51464.0,STARLINK-3189,PAYLOAD,2024-04-05 16:28:53,15.08841079,0.0001309,53.2188,195.0238,87.0691,273.0451,-4.1549e-06,-3.54e-06,0.0,0 STARLINK-3189,1 51464U 22010J   24096.68673318 -.00000354  00000-0 -41549-5 0  9990,2 51464  53.2188 195.0238 0001309  87.0691 273.0451 15.08841079121145,6917.877,95.437,540.648,538.837,0.0
51464.0,STARLINK-3189,PAYLOAD,2024-04-06 13:08:54,15.08839178,0.0001361,53.2179,191.1576,93.0377,267.0771,0.00013376,1.841e-05,0.0,0 STARLINK-3189,1 51464U 22010J   24097.54785181  .00001841  00000-0  13376-3 0  9993,2 51464  53.2179 191.1576 0001361  93.0377 267.0771 15.08839178121328,6917.883,95.438,540.689,538.806,0.0
51464.0,STARLINK-3189,PAYLOAD,2024-04-06 22:41:12,15.08851075,0.0001467,53.2183,189.373,91.7937,268.3223,0.00012344,1.678e-05,0.0,0 STARLINK-3189,1 51464U 22010J   24097.94528347  .00001678  00000-0  12344-3 0  9998,2 51464  53.2183 189.3730 0001467  91.7937 268.3223 15.08851075121380,6917.847,95.437,540.726,538.697,0.0
51464.0,STARLINK-3189,PAYLOAD,2024-04-07 09:48:55,15.08834181,0.0001991,53.2179,187.2937,115.7893,244.3305,1.3925e-05,-6.7e-07,0.0,0 STARLINK-3189,1 51464U 22010J   24098.40897511 -.00000067  00000-0  13925-4 0  9991,2 51464  53.2179 187.2937 0001991 115.7893 244.3305 15.08834181121408,6917.898,95.438,541.141,538.386,0.0
51464.0,STARLINK-3189,PAYLOAD,2024-04-07 22:32:00,15.08838417,0.0001526,53.2179,184.9143,92.1237,267.993,5.5953e-06,-1.99e-06,0.0,0 STARLINK-3189,1 51464U 22010J   24098.93889446 -.00000199  00000-0  55953-5 0  9991,2 51464  53.2179 184.9143 0001526  92.1237 267.9930 15.08838417121530,6917.885,95.438,540.806,538.695,0.0
51464.0,STARLINK-3189,PAYLOAD,2024-04-08 12:50:28,15.08842779,0.0001541,53.2192,182.2402,103.2354,256.881,0.00011026,1.467e-05,0.0,0 STARLINK-3189,1 51464U 22010J   24099.53505379  .00001467  00000-0  11026-3 0  9997,2 51464  53.2192 182.2402 0001541 103.2354 256.8810 15.08842779121579,6917.872,95.437,540.803,538.671,0.0
51464.0,STARLINK-3189,PAYLOAD,2024-04-08 22:22:47,15.08849205,0.0002051,53.2176,180.4541,92.2257,267.897,0.00023937,3.524e-05,0.0,0 STARLINK-3189,1 51464U 22010J   24099.93249133  .00003524  00000-0  23937-3 0  9994,2 51464  53.2176 180.4541 0002051  92.2257 267.8970 15.08849205121683,6917.852,95.437,541.136,538.298,0.0
51464.0,STARLINK-3189,PAYLOAD,2024-04-09 09:30:29,15.08836998,0.0002341,53.2192,178.3702,86.1593,273.9666,0.0001759,2.512e-05,0.0,0 STARLINK-3189,1 51464U 22010J   24100.39617978  .00002512  00000-0  17590-3 0  9997,2 51464  53.2192 178.3702 0002341  86.1593 273.9666 15.08836998121701,6917.89,95.438,541.374,538.135,0.0
51464.0,STARLINK-3189,PAYLOAD,2024-04-09 22:13:34,15.08838851,0.0002324,53.2179,175.9895,80.5327,279.5927,0.00021819,3.186e-05,0.0,0 STARLINK-3189,1 51464U 22010J   24100.92609925  .00003186  00000-0  21819-3 0  9996,2 51464  53.2179 175.9895 0002324  80.5327 279.5927 15.08838851121832,6917.884,95.438,541.357,538.141,0.0
51464.0,STARLINK-3189,PAYLOAD,2024-04-10 10:56:39,15.08836759,0.0001484,53.2162,173.6143,83.5833,276.5328,2.2395e-05,6.8e-07,0.0,0 STARLINK-3189,1 51464U 22010J   24101.45601798  .00000068  00000-0  22395-4 0  9992,2 51464  53.2162 173.6143 0001484  83.5833 276.5328 15.08836759121866,6917.89,95.438,540.782,538.729,0.0
51464.0,STARLINK-3189,PAYLOAD,2024-04-10 14:07:25,15.08839158,0.0001508,53.2129,173.0162,85.0395,275.0769,2.6448e-05,1.33e-06,0.0,0 STARLINK-3189,1 51464U 22010J   24101.58849489  .00000133  00000-0  26448-4 0  9993,2 51464  53.2129 173.0162 0001508  85.0395 275.0769 15.08839158121938,6917.883,95.438,540.791,538.705,0.0
51464.0,STARLINK-3189,PAYLOAD,2024-04-10 22:04:21,15.08846537,0.0001621,53.2155,171.5317,83.8668,276.2509,0.00021418,3.123e-05,0.0,0 STARLINK-3189,1 51464U 22010J   24101.91969317  .00003123  00000-0  21418-3 0  9996,2 51464  53.2155 171.5317 0001621  83.8668 276.2509 15.08846537121986,6917.86,95.437,540.847,538.604,0.0
51464.0,STARLINK-3189,PAYLOAD,2024-04-11 10:47:26,15.0884488,0.0001922,53.2153,169.151,90.5453,269.576,0.0002136,3.113e-05,0.0,0 STARLINK-3189,1 51464U 22010J   24102.44961611  .00003113  00000-0  21360-3 0  9999,2 51464  53.2153 169.1510 0001922  90.5453 269.5760 15.08844880122066,6917.865,95.437,541.06,538.401,0.0
51464.0,STARLINK-3189,PAYLOAD,2024-04-12 10:38:13,15.08840792,0.0001578,53.2168,164.691,92.7146,267.4027,8.9639e-05,1.139e-05,0.0,0 STARLINK-3189,1 51464U 22010J   24103.44321640  .00001139  00000-0  89639-4 0  9992,2 51464  53.2168 164.6910 0001578  92.7146 267.4027 15.08840792122168,6917.878,95.438,540.835,538.651,0.0
51464.0,STARLINK-3189,PAYLOAD,2024-04-13 10:29:01,15.08837508,0.0001371,53.2156,160.2301,86.4417,273.6732,-1.2511e-06,-3.08e-06,0.0,0 STARLINK-3189,1 51464U 22010J   24104.43681815 -.00000308  00000-0 -12511-5 0  9990,2 51464  53.2156 160.2301 0001371  86.4417 273.6732 15.08837508122368,6917.888,95.438,540.701,538.805,0.0
51464.0,STARLINK-3189,PAYLOAD,2024-04-14 10:19:47,15.08841398,0.000137,53.2172,155.7706,97.3537,262.7611,0.00011853,1.599e-05,0.0,0 STARLINK-3189,1 51464U 22010J   24105.43041584  .00001599  00000-0  11853-3 0  9991,2 51464  53.2172 155.7706 0001370  97.3537 262.7611 15.08841398122511,6917.876,95.437,540.689,538.793,0.0
51464.0,STARLINK-3189,PAYLOAD,2024-04-15 03:49:02,15.0884188,0.0001391,53.2161,152.4992,92.9076,267.2076,0.00014184,1.97e-05,0.0,0 STARLINK-3189,1 51464U 22010J   24106.15905632  .00001970  00000-0  14184-3 0  9997,2 51464  53.2161 152.4992 0001391  92.9076 267.2076 15.08841880122579,6917.875,95.437,540.702,538.777,0.0
51464.0,STARLINK-3189,PAYLOAD,2024-04-15 08:35:12,15.0883818,0.0001386,53.2161,151.6069,99.8712,260.2437,7.0535e-05,8.35e-06,0.0,0 STARLINK-3189,1 51464U 22010J   24106.35777788  .00000835  00000-0  70535-4 0  9990,2 51464  53.2161 151.6069 0001386  99.8712 260.2437 15.08838180122654,6917.886,95.438,540.71,538.792,0.0
51464.0,STARLINK-3189,PAYLOAD,2024-04-15 19:42:53,15.08846027,0.0001405,53.2167,149.527,90.9828,269.1325,0.00013596,1.877e-05,0.0,0 STARLINK-3189,1 51464U 22010J   24106.82145391  .00001877  00000-0  13596-3 0  9991,2 51464  53.2167 149.5270 0001405  90.9828 269.1325 15.08846027122723,6917.862,95.437,540.699,538.755,0.0
51464.0,STARLINK-3189,PAYLOAD,2024-04-16 11:36:45,15.08846366,0.0001607,53.2178,146.5535,91.3755,268.7422,0.00010849,1.439e-05,0.0,0 STARLINK-3189,1 51464U 22010J   24107.48385648  .00001439  00000-0  10849-3 0  9997,2 51464  53.2178 146.5535 0001607  91.3755 268.7422 15.08846366122778,6917.861,95.437,540.838,538.614,0.0
51464.0,STARLINK-3189,PAYLOAD,2024-04-17 11:27:32,15.08841627,0.000157,53.2169,142.0926,94.3838,265.7333,0.00011131,1.484e-05,0.0,0 STARLINK-3189,1 51464U 22010J   24108.47745738  .00001484  00000-0  11131-3 0  9992,2 51464  53.2169 142.0926 0001570  94.3838 265.7333 15.08841627122927,6917.875,95.437,540.827,538.654,0.0
51464.0,STARLINK-3189,PAYLOAD,2024-04-18 01:46:00,15.08830346,0.0001513,53.2166,139.4156,112.6172,247.4981,3.1673e-06,-2.38e-06,0.0,0 STARLINK-3189,1 51464U 22010J   24109.07362263 -.00000238  00000-0  31673-5 0  9999,2 51464  53.2166 139.4156 0001513 112.6172 247.4981 15.08830346123014,6917.91,95.438,540.822,538.728,0.0
51464.0,STARLINK-3189,PAYLOAD,2024-04-18 09:42:57,15.08817195,0.0001232,53.216,137.9217,101.2621,258.8509,-0.00023874,-4.083e-05,0.0,0 STARLINK-3189,1 51464U 22010J   24109.40483647 -.00004083  00000-0 -23874-3 0  9991,2 51464  53.2160 137.9217 0001232 101.2621 258.8509 15.08817195123064,6917.95,95.439,540.667,538.963,0.0
51464.0,STARLINK-3189,PAYLOAD,2024-04-19 07:58:21,15.08848656,0.00016,53.2173,133.7645,98.087,262.0304,0.00017905,2.563e-05,0.0,0 STARLINK-3189,1 51464U 22010J   24110.33218906  .00002563  00000-0  17905-3 0  9996,2 51464  53.2173 133.7645 0001600  98.0870 262.0304 15.08848656123207,6917.854,95.437,540.826,538.612,0.0
51464.0,STARLINK-3189,PAYLOAD,2024-04-20 07:49:07,15.08882221,0.0001646,53.2156,129.3097,77.0566,283.061,0.0011242,0.0001767,0.0,0 STARLINK-3189,1 51464U 22010J   24111.32578639  .00017670  00000-0  11242-2 0  9990,2 51464  53.2156 129.3097 0001646  77.0566 283.0610 15.08882221123354,6917.751,95.435,540.755,538.478,0.0
51464.0,STARLINK-3189,PAYLOAD,2024-04-21 04:29:07,15.08823208,0.0001191,53.2161,125.4382,80.5943,279.5184,-0.0015482,-0.00024831,0.0,0 STARLINK-3189,1 51464U 22010J   24112.18689495 -.00024831  00000-0 -15482-2 0  9997,2 51464  53.2161 125.4382 0001191  80.5943 279.5184 15.08823208123487,6917.932,95.439,540.621,538.973,0.0
51464.0,STARLINK-3189,PAYLOAD,2024-04-21 07:39:54,15.08819178,0.0001212,53.2162,124.8439,86.0491,274.064,-0.0012169,-0.00019591,0.0,0 STARLINK-3189,1 51464U 22010J   24112.31937681 -.00019591  00000-0 -12169-2 0  9991,2 51464  53.2162 124.8439 0001212  86.0491 274.0640 15.08819178123553,6917.944,95.439,540.647,538.971,0.0
